DONGPO 10               
1 54689U 22167H   26137.61064811  .00007581  00000+0  23454-3 0  9997
2 54689  97.6920 306.4754 0004508 207.5265 152.5738 15.33786443190678
JILIN-1 GAOFEN 03D48    
1 54695U 22167P   26137.62329897  .00007911  00000+0  23898-3 0  9992
2 54695  97.6854 305.8572 0005772 214.6969 145.3897 15.34522328190707
STAR VIBE               
1 55009U 23001A   26137.60878104  .00009577  00000+0  22866-3 0  9992
2 55009  97.3187 201.9670 0005117 207.2712 152.8267 15.41723969187516
BRO-8                   
1 55011U 23001C   26137.60273538  .00020050  00000+0  39672-3 0  9997
2 55011  97.3232 202.3887 0005483 214.2792 145.8105 15.47114487187470
CONNECTA T1.2           
1 55012U 23001D   26137.56066882  .00022914  00000+0  43353-3 0  9997
2 55012  97.3290 207.7587 0006428 189.7386 170.3741 15.48377604187805
BIRKELAND               
1 55015U 23001G   26137.60275992  .00006500  00000+0  16766-3 0  9990
2 55015  97.3359 205.5055 0006277 200.0687 160.0313 15.39500559187643
ION SCV-008             
1 55051U 23001AU  26137.53200527  .00004812  00000+0  17746-3 0  9997
2 55051  97.5698 233.3500 0016427 119.1182 241.1704 15.28165773186651
ION SCV-007             
1 55060U 23001BD  26137.58796111  .00000267  00000+0  44529-4 0  9991
2 55060  97.9022 201.2076 0013746  76.8337 283.4407 14.77522610181733
HUYGENS                 
1 55093U 23001CN  26137.60283961  .00006210  00000+0  16015-3 0  9996
2 55093  97.3264 204.7748 0009711 182.7996 177.3197 15.39499255187662
SHARJAHSAT-1            
1 55104U 23001CZ  26137.61063984  .00012382  00000+0  23955-3 0  9999
2 55104  97.3189 205.9784 0005609 196.2411 163.8660 15.47874794187768
HORUS 1                 
1 55690U 23025A   26137.60959678  .00004181  00000+0  17766-3 0  9999
2 55690  97.3470 212.8456 0002248 107.8256 252.3227 15.23587210179396
HORUS 2                 
1 55844U 23032A   26137.64556906  .00004061  00000+0  17346-3 0  9990
2 55844  97.3542 213.6563 0002934 137.0687 223.0779 15.23430017176835
GLOBAL-19               
1 55982U 23041B   26137.38986456  .00009673  00000+0  25658-3 0  9990
2 55982  42.0033  21.5674 0005018 135.9502 224.1738 15.38360502177181
BRO-9                   
1 56185U 23054H   26137.45800378  .00173226  00000+0  80558-3 0  9992
2 56185  97.2990  53.6638 0007832 121.1703 239.0335 15.82872718174207
ION SCV-010             
1 56192U 23054Q   26137.60396773  .00003286  00000+0  13082-3 0  9992
2 56192  97.3818  27.4957 0011618 319.5001  40.5372 15.25906484171533
TELEOS-2                
1 56310U 23057C   26137.36315093  .00003672  00000+0  25610-3 0  9995
2 56310   9.9885  68.6035 0000713 264.9913  95.0219 14.96416029168170
SNIPE 4                 
1 56744U 23072B   26137.57848711  .00014132  00000+0  34358-3 0  9996
2 56744  97.5273 342.6399 0007062  82.0141 278.1907 15.41070502165391
SNIPE 2                 
1 56745U 23072C   26137.64218963  .00018498  00000+0  39064-3 0  9993
2 56745  97.5269 345.5455 0006355 106.1146 254.0803 15.45224757165529
2023-072G               
1 56749U 23072G   26137.64940468  .00019558  00000+0  36553-3 0  9997
2 56749  97.4924 344.3263 0005609  97.4428 262.7460 15.48770589165730
GEISAT PRECURSOR        
1 56934U 23084C   26137.63396853  .00005109  00000+0  15680-3 0  9993
2 56934  97.6185 277.5999 0007258  96.2456 263.9613 15.34195686162846
BLACKJACK ACES-3        
1 56950U 23084U   26137.65760266  .00003420  00000+0  17004-3 0  9992
2 56950  97.6171 272.6291 0004255 106.2920 253.8782 15.18325443162531
BLACKJACK ACES-2        
1 56955U 23084Z   26137.33464378  .00004640  00000+0  22947-3 0  9994
2 56955  97.6167 272.3890 0002647  93.6455 266.5081 15.18325041162490
BLACKJACK ACES-1        
1 56956U 23084AA  26137.65190700  .00005025  00000+0  24930-3 0  9997
2 56956  97.6160 272.4863 0001521  95.3864 264.7544 15.18176192112263
ION SCV-011             
1 56957U 23084AB  26137.49775276  .00003695  00000+0  13625-3 0  9997
2 56957  98.1376 321.9422 0008173 137.5723 222.6148 15.28519001161126
GHOST-3                 
1 56958U 23084AC  26137.38092766  .00011757  00000+0  23606-3 0  9990
2 56958  97.6182 284.3341 0006873  55.1297 305.0598 15.46813588163252
TOMORROW-R2             
1 56962U 23084AG  26137.40689524  .00137809  90895-5  47562-3 0  9993
2 56962  97.5925 297.6478 0001982 273.9973  86.1072 15.89582304164145
AFR-1                   
1 56964U 23084AJ  26137.65819465  .00003221  00000+0  11960-3 0  9997
2 56964  97.6234 273.6290 0012053  87.9210 272.3410 15.28268968162564
METEOR-M2 3             
1 57166U 23091A   26137.60460631 -.00000010  00000+0  14311-4 0  9990
2 57166  98.6106 193.2052 0002791 254.0169 106.0702 14.24043902150163
UMKA 1 (RS40S)          
1 57172U 23091G   26137.62639673  .00004136  00000+0  19252-3 0  9993
2 57172  97.5067 196.4465 0011880 220.0863 139.9496 15.20437480159361
2023-091H               
1 57173U 23091H   26137.60589824  .00007125  00000+0  26393-3 0  9999
2 57173  97.5065 200.5643 0009296 212.6154 147.4512 15.27921675159637
