OBJECT_NAME,OBJECT_ID,EPOCH,MEAN_MOTION,ECCENTRICITY,INCLINATION,RA_OF_ASC_NODE,ARG_OF_PERICENTER,MEAN_ANOMALY,EPHEMERIS_TYPE,CLASSIFICATION_TYPE,NORAD_CAT_ID,ELEMENT_SET_NO,REV_AT_EPOCH,BSTAR,MEAN_MOTION_DOT,MEAN_MOTION_DDOT
DONGPO 10,2022-167H,2026-05-17T14:39:19.996704,15.33786443,.00045087,97.6920,306.4754,207.5265,152.5738,0,U,54689,999,19067,.23453571E-3,.7581E-4,0
JILIN-1 GAOFEN 03D48,2022-167P,2026-05-17T14:57:33.031008,15.34522328,.00057727,97.6854,305.8572,214.6969,145.3897,0,U,54695,999,19070,.23898188E-3,.7911E-4,0
STAR VIBE,2023-001A,2026-05-17T14:36:38.681856,15.41723969,.00051173,97.3187,201.9670,207.2712,152.8267,0,U,55009,999,18751,.22866386E-3,.9577E-4,0
BRO-8,2023-001C,2026-05-17T14:27:56.336832,15.47114487,.00054838,97.3232,202.3887,214.2792,145.8105,0,U,55011,999,18747,.39672057E-3,.2005E-3,0
CONNECTA T1.2,2023-001D,2026-05-17T13:27:21.786048,15.48377604,.0006428,97.3290,207.7587,189.7386,170.3741,0,U,55012,999,18780,.43353227E-3,.22914E-3,0
BIRKELAND,2023-001G,2026-05-17T14:27:58.457088,15.39500559,.0006277,97.3359,205.5055,200.0687,160.0313,0,U,55015,999,18764,.16765625E-3,.65E-4,0
ION SCV-008,2023-001AU,2026-05-17T12:46:05.255328,15.28165773,.00164277,97.5698,233.3500,119.1182,241.1704,0,U,55051,999,18665,.17746251E-3,.4812E-4,0
ION SCV-007,2023-001BD,2026-05-17T14:06:39.839904,14.77522610,.00137464,97.9022,201.2076,76.8337,283.4407,0,U,55060,999,18173,.44529221E-4,.267E-5,0
HUYGENS,2023-001CN,2026-05-17T14:28:05.342304,15.39499255,.00097115,97.3264,204.7748,182.7996,177.3197,0,U,55093,999,18766,.16015365E-3,.621E-4,0
SHARJAHSAT-1,2023-001CZ,2026-05-17T14:39:19.282176,15.47874794,.00056099,97.3189,205.9784,196.2411,163.8660,0,U,55104,999,18776,.23954829E-3,.12382E-3,0
HORUS 1,2023-025A,2026-05-17T14:37:49.161792,15.23587210,.00022489,97.3470,212.8456,107.8256,252.3227,0,U,55690,999,17939,.17765729E-3,.4181E-4,0
HORUS 2,2023-032A,2026-05-17T15:29:37.166784,15.23430017,.00029349,97.3542,213.6563,137.0687,223.0779,0,U,55844,999,17683,.17346165E-3,.4061E-4,0
GLOBAL-19,2023-041B,2026-05-17T09:21:24.297984,15.38360502,.00050182,42.0033,21.5674,135.9502,224.1738,0,U,55982,999,17718,.25658292E-3,.9673E-4,0
BRO-9,2023-054H,2026-05-17T10:59:31.526592,15.82872718,.00078329,97.2990,53.6638,121.1703,239.0335,0,U,56185,999,17420,.80557817E-3,.173226E-2,0
ION SCV-010,2023-054Q,2026-05-17T14:29:42.811872,15.25906484,.00116184,97.3818,27.4957,319.5001,40.5372,0,U,56192,999,17153,.13082148E-3,.3286E-4,0
TELEOS-2,2023-057C,2026-05-17T08:42:56.240352,14.96416029,.00007131,9.9885,68.6035,264.9913,95.0219,0,U,56310,999,16817,.25609984E-3,.3672E-4,0
SNIPE 4,2023-072B,2026-05-17T13:53:01.286304,15.41070502,.00070629,97.5273,342.6399,82.0141,278.1907,0,U,56744,999,16539,.34358006E-3,.14132E-3,0
SNIPE 2,2023-072C,2026-05-17T15:24:45.184032,15.45224757,.00063552,97.5269,345.5455,106.1146,254.0803,0,U,56745,999,16552,.39064125E-3,.18498E-3,0
2023-072G,2023-072G,2026-05-17T15:35:08.564352,15.48770589,.00056093,97.4924,344.3263,97.4428,262.7460,0,U,56749,999,16573,.36553203E-3,.19558E-3,0
GEISAT PRECURSOR,2023-084C,2026-05-17T15:12:54.880992,15.34195686,.00072585,97.6185,277.5999,96.2456,263.9613,0,U,56934,999,16284,.15680264E-3,.5109E-4,0
BLACKJACK ACES-3,2023-084U,2026-05-17T15:46:56.869824,15.18325443,.00042551,97.6171,272.6291,106.2920,253.8782,0,U,56950,999,16253,.17003573E-3,.342E-4,0
BLACKJACK ACES-2,2023-084Z,2026-05-17T08:01:53.222592,15.18325041,.00026475,97.6167,272.3890,93.6455,266.5081,0,U,56955,999,16249,.22946566E-3,.464E-4,0
BLACKJACK ACES-1,2023-084AA,2026-05-17T15:38:44.764800,15.18176192,.00015218,97.6160,272.4863,95.3864,264.7544,0,U,56956,999,11226,.24929978E-3,.5025E-4,0
ION SCV-011,2023-084AB,2026-05-17T11:56:45.838464,15.28519001,.00081737,98.1376,321.9422,137.5723,222.6148,0,U,56957,999,16112,.13624679E-3,.3695E-4,0
GHOST-3,2023-084AC,2026-05-17T09:08:32.149824,15.46813588,.00068732,97.6182,284.3341,55.1297,305.0598,0,U,56958,999,16325,.23606252E-3,.11757E-3,0
TOMORROW-R2,2023-084AG,2026-05-17T09:45:55.748736,15.89582304,.00019827,97.5925,297.6478,273.9973,86.1072,0,U,56962,999,16414,.47562463E-3,.137809E-2,.9089484E-5
AFR-1,2023-084AJ,2026-05-17T15:47:48.017760,15.28268968,.00120537,97.6234,273.6290,87.9210,272.3410,0,U,56964,999,16256,.11959944E-3,.3221E-4,0
METEOR-M2 3,2023-091A,2026-05-17T14:30:37.985184,14.24043902,.00027919,98.6106,193.2052,254.0169,106.0702,0,U,57166,999,15016,.14310754E-4,-.1E-6,0
UMKA 1 (RS40S),2023-091G,2026-05-17T15:02:00.677472,15.20437480,.00118804,97.5067,196.4465,220.0863,139.9496,0,U,57172,999,15936,.19252066E-3,.4136E-4,0
2023-091H,2023-091H,2026-05-17T14:32:29.607936,15.27921675,.0009296,97.5065,200.5643,212.6154,147.4512,0,U,57173,999,15963,.26392649E-3,.7125E-4,0
